GLOBALSTAR M094         
1 39074U 13005C   24210.15569972 -.00000094  00000+0  54532-4 0  9991
2 39074  51.9961  88.6974 0000506  40.6781 319.4124 12.62266236531475
GLOBALSTAR M096         
1 39075U 13005D   24210.48570714 -.00000084  00000+0  10863-3 0  9991
2 39075  52.0068 135.9547 0000296 354.6612   5.4252 12.62267921530762
GLOBALSTAR M078         
1 39076U 13005E   24210.14262915 -.00000101  00000+0  14477-4 0  9992
2 39076  51.9843 221.9510 0001055 170.9172 189.1714 12.62273446529201
GLOBALSTAR M095         
1 39077U 13005F   24210.48553282 -.00000090  00000+0  75063-4 0  9995
2 39077  51.9770 218.2624 0000629 211.5561 148.5268 12.62262739529257
GLOBALSTAR M087         
1 52888U 22064A   24210.13156966 -.00000102  00000+0  51104-4 0  9999
2 52888  51.9762  65.6097 0010070 106.0790 254.1220 13.37579575103009
